$$SOE
2459580.500000000, A.D. 2022-Jan-01 00:00:00.0000, 3.753193023940393E+09, 5.557408160766269E+09, -2.435824461231034E+08,
2459587.500000000, A.D. 2022-Jan-08 00:00:00.0000, 3.751017709528254E+09, 5.558861176232119E+09, -2.433594836871333E+08,
2459594.500000000, A.D. 2022-Jan-15 00:00:00.0000, 3.748841711599758E+09, 5.560313312924333E+09, -2.431364805584161E+08,
2459601.500000000, A.D. 2022-Jan-22 00:00:00.0000, 3.746665034414033E+09, 5.561764569101988E+09, -2.429134371484745E+08,
2459608.500000000, A.D. 2022-Jan-29 00:00:00.0000, 3.744487682809341E+09, 5.563214945500642E+09, -2.426903537617068E+08,
2459615.500000000, A.D. 2022-Feb-05 00:00:00.0000, 3.742309659995999E+09, 5.564664444660662E+09, -2.424672304476216E+08,
2459622.500000000, A.D. 2022-Feb-12 00:00:00.0000, 3.740130967522629E+09, 5.566113069187302E+09, -2.422440671381178E+08,
2459629.500000000, A.D. 2022-Feb-19 00:00:00.0000, 3.737951606090941E+09, 5.567560821311548E+09, -2.420208637548091E+08,
2459636.500000000, A.D. 2022-Feb-26 00:00:00.0000, 3.735771575907701E+09, 5.569007703028721E+09, -2.417976202253840E+08,
2459643.500000000, A.D. 2022-Mar-05 00:00:00.0000, 3.733590876733145E+09, 5.570453716197932E+09, -2.415743364742575E+08,
2459650.500000000, A.D. 2022-Mar-12 00:00:00.0000, 3.731409507847661E+09, 5.571898862536838E+09, -2.413510124135356E+08,
2459657.500000000, A.D. 2022-Mar-19 00:00:00.0000, 3.729227468007796E+09, 5.573343143539791E+09, -2.411276479388170E+08,
2459664.500000000, A.D. 2022-Mar-26 00:00:00.0000, 3.727044755414009E+09, 5.574786560313692E+09, -2.409042429326499E+08,
2459671.500000000, A.D. 2022-Apr-02 00:00:00.0000, 3.724861367757934E+09, 5.576229113275902E+09, -2.406807972867100E+08,
2459678.500000000, A.D. 2022-Apr-09 00:00:00.0000, 3.722677302621248E+09, 5.577670801719272E+09, -2.404573109674675E+08,
2459685.500000000, A.D. 2022-Apr-16 00:00:00.0000, 3.720492558583256E+09, 5.579111623898590E+09, -2.402337841048388E+08,
2459692.500000000, A.D. 2022-Apr-23 00:00:00.0000, 3.718307135768312E+09, 5.580551578722919E+09, -2.400102168989697E+08,
2459699.500000000, A.D. 2022-Apr-30 00:00:00.0000, 3.716121033962952E+09, 5.581990666808685E+09, -2.397866093571680E+08,
2459706.500000000, A.D. 2022-May-07 00:00:00.0000, 3.713934251365443E+09, 5.583428888920089E+09, -2.395629613032718E+08,
2459713.500000000, A.D. 2022-May-14 00:00:00.0000, 3.711746785357139E+09, 5.584866244835132E+09, -2.393392725386395E+08,
2459720.500000000, A.D. 2022-May-21 00:00:00.0000, 3.709558633264565E+09, 5.586302733396036E+09, -2.391155429064755E+08,
2459727.500000000, A.D. 2022-May-28 00:00:00.0000, 3.707369792633442E+09, 5.587738352785347E+09, -2.388917722938945E+08,
2459734.500000000, A.D. 2022-Jun-04 00:00:00.0000, 3.705180261291765E+09, 5.589173100715044E+09, -2.386679606227024E+08,
2459741.500000000, A.D. 2022-Jun-11 00:00:00.0000, 3.702990037346630E+09, 5.590606974530933E+09, -2.384441078419251E+08,
2459748.500000000, A.D. 2022-Jun-18 00:00:00.0000, 3.700799119153555E+09, 5.592039971245832E+09, -2.382202139245005E+08,
2459755.500000000, A.D. 2022-Jun-25 00:00:00.0000, 3.698607505287771E+09, 5.593472087468617E+09, -2.379962788734574E+08,
2459762.500000000, A.D. 2022-Jul-02 00:00:00.0000, 3.696415194651526E+09, 5.594903319163610E+09, -2.377723027551508E+08,
2459769.500000000, A.D. 2022-Jul-09 00:00:00.0000, 3.694222187107769E+09, 5.596333661417550E+09, -2.375482857807641E+08,
2459776.500000000, A.D. 2022-Jul-16 00:00:00.0000, 3.692028484584997E+09, 5.597763109297071E+09, -2.373242283423610E+08,
2459783.500000000, A.D. 2022-Jul-23 00:00:00.0000, 3.689834090454943E+09, 5.599191659874547E+09, -2.371001307953229E+08,
2459790.500000000, A.D. 2022-Jul-30 00:00:00.0000, 3.687639007267143E+09, 5.600619312068394E+09, -2.368759932687440E+08,
2459797.500000000, A.D. 2022-Aug-06 00:00:00.0000, 3.685443236439181E+09, 5.602046064945984E+09, -2.366518157806909E+08,
2459804.500000000, A.D. 2022-Aug-13 00:00:00.0000, 3.683246779079399E+09, 5.603471917243608E+09, -2.364275983574789E+08,
2459811.500000000, A.D. 2022-Aug-20 00:00:00.0000, 3.681049636372749E+09, 5.604896867600118E+09, -2.362033410539093E+08,
2459818.500000000, A.D. 2022-Aug-27 00:00:00.0000, 3.678851809597903E+09, 5.606320914777662E+09, -2.359790439398677E+08,
2459825.500000000, A.D. 2022-Sep-03 00:00:00.0000, 3.676653300023563E+09, 5.607744057758975E+09, -2.357547070848680E+08,
2459832.500000000, A.D. 2022-Sep-10 00:00:00.0000, 3.674454108774062E+09, 5.609166295745135E+09, -2.355303305467286E+08,
2459839.500000000, A.D. 2022-Sep-17 00:00:00.0000, 3.672254236693669E+09, 5.610587628052066E+09, -2.353059143671739E+08,
2459846.500000000, A.D. 2022-Sep-24 00:00:00.0000, 3.670053684270044E+09, 5.612008053854878E+09, -2.350814585840740E+08,
2459853.500000000, A.D. 2022-Oct-01 00:00:00.0000, 3.667852451856803E+09, 5.613427571757782E+09, -2.348569632842846E+08,
2459860.500000000, A.D. 2022-Oct-08 00:00:00.0000, 3.665650540602509E+09, 5.614846179711627E+09, -2.346324286919603E+08,
2459867.500000000, A.D. 2022-Oct-15 00:00:00.0000, 3.663447953154258E+09, 5.616263876478269E+09, -2.344078551091034E+08,
2459874.500000000, A.D. 2022-Oct-22 00:00:00.0000, 3.661244691954260E+09, 5.617680662957844E+09, -2.341832426461196E+08,
2459881.500000000, A.D. 2022-Oct-29 00:00:00.0000, 3.659040757627232E+09, 5.619096540785500E+09, -2.339585911837246E+08,
2459888.500000000, A.D. 2022-Nov-05 00:00:00.0000, 3.656836149557935E+09, 5.620511510938706E+09, -2.337339005350211E+08,
2459895.500000000, A.D. 2022-Nov-12 00:00:00.0000, 3.654630866694006E+09, 5.621925573622365E+09, -2.335091705242031E+08,
2459902.500000000, A.D. 2022-Nov-19 00:00:00.0000, 3.652424907854719E+09, 5.623338728477631E+09, -2.332844009940779E+08,
2459909.500000000, A.D. 2022-Nov-26 00:00:00.0000, 3.650218271807915E+09, 5.624750974717083E+09, -2.330595917990673E+08,
2459916.500000000, A.D. 2022-Dec-03 00:00:00.0000, 3.648010957281092E+09, 5.626162311174750E+09, -2.328347427999556E+08,
2459923.500000000, A.D. 2022-Dec-10 00:00:00.0000, 3.645802962952211E+09, 5.627572736289635E+09, -2.326098538630936E+08,
2459930.500000000, A.D. 2022-Dec-17 00:00:00.0000, 3.643594287444934E+09, 5.628982247997814E+09, -2.323849248683722E+08,
2459937.500000000, A.D. 2022-Dec-24 00:00:00.0000, 3.641384929437671E+09, 5.630390843467196E+09, -2.321599557413530E+08,
2459944.500000000, A.D. 2022-Dec-31 00:00:00.0000, 3.639174888244070E+09, 5.631798518782526E+09, -2.319349465335529E+08,
2459951.500000000, A.D. 2023-Jan-07 00:00:00.0000, 3.636964164987689E+09, 5.633205269542974E+09, -2.317098974834085E+08,
2459958.500000000, A.D. 2023-Jan-14 00:00:00.0000, 3.634752762403801E+09, 5.634611092869149E+09, -2.314848088368542E+08,
2459965.500000000, A.D. 2023-Jan-21 00:00:00.0000, 3.632540682623602E+09, 5.636015987646875E+09, -2.312596806275582E+08,
2459972.500000000, A.D. 2023-Jan-28 00:00:00.0000, 3.630327926608817E+09, 5.637419952812275E+09, -2.310345127691686E+08,
2459979.500000000, A.D. 2023-Feb-04 00:00:00.0000, 3.628114495028157E+09, 5.638822986705856E+09, -2.308093051929271E+08,
2459986.500000000, A.D. 2023-Feb-11 00:00:00.0000, 3.625900388780419E+09, 5.640225087302119E+09, -2.305840578817110E+08,
2459993.500000000, A.D. 2023-Feb-18 00:00:00.0000, 3.623685609101032E+09, 5.641626252491596E+09, -2.303587708618507E+08,
2460000.500000000, A.D. 2023-Feb-25 00:00:00.0000, 3.621470157514957E+09, 5.643026480253750E+09, -2.301334441899130E+08,
2460007.500000000, A.D. 2023-Mar-04 00:00:00.0000, 3.619254035738312E+09, 5.644425768739732E+09, -2.299080779421320E+08,
2460014.500000000, A.D. 2023-Mar-11 00:00:00.0000, 3.617037245557509E+09, 5.645824116265768E+09, -2.296826722088780E+08,
2460021.500000000, A.D. 2023-Mar-18 00:00:00.0000, 3.614819788733173E+09, 5.647221521167924E+09, -2.294572271023273E+08,
2460028.500000000, A.D. 2023-Mar-25 00:00:00.0000, 3.612601667132351E+09, 5.648617981471289E+09, -2.292317427996147E+08,
2460035.500000000, A.D. 2023-Apr-01 00:00:00.0000, 3.610382883513720E+09, 5.650013494767215E+09, -2.290062196280329E+08,
2460042.500000000, A.D. 2023-Apr-08 00:00:00.0000, 3.608163442350558E+09, 5.651408059523780E+09, -2.287806580355456E+08,
2460049.500000000, A.D. 2023-Apr-15 00:00:00.0000, 3.605943348354581E+09, 5.652801676723464E+09, -2.285550583224444E+08,
2460056.500000000, A.D. 2023-Apr-22 00:00:00.0000, 3.603722604509930E+09, 5.654194348776227E+09, -2.283294205494220E+08,
2460063.500000000, A.D. 2023-Apr-29 00:00:00.0000, 3.601501212352417E+09, 5.655586077960929E+09, -2.281037446887605E+08,
2460070.500000000, A.D. 2023-May-06 00:00:00.0000, 3.599279172733849E+09, 5.656976866176324E+09, -2.278780307116582E+08,
2460077.500000000, A.D. 2023-May-13 00:00:00.0000, 3.597056486094671E+09, 5.658366715108217E+09, -2.276522785952284E+08,
2460084.500000000, A.D. 2023-May-20 00:00:00.0000, 3.594833152479136E+09, 5.659755626321765E+09, -2.274264883109574E+08,
2460091.500000000, A.D. 2023-May-27 00:00:00.0000, 3.592609171486459E+09, 5.661143601249566E+09, -2.272006598149886E+08,
2460098.500000000, A.D. 2023-Jun-03 00:00:00.0000, 3.590384542215611E+09, 5.662530641101604E+09, -2.269747930436890E+08,
2460105.500000000, A.D. 2023-Jun-10 00:00:00.0000, 3.588159263227481E+09, 5.663916746683359E+09, -2.267488879180622E+08,
2460112.500000000, A.D. 2023-Jun-17 00:00:00.0000, 3.585933332613491E+09, 5.665301918062014E+09, -2.265229443703752E+08,
2460119.500000000, A.D. 2023-Jun-24 00:00:00.0000, 3.583706748490630E+09, 5.666686154136443E+09, -2.262969624180503E+08,
2460126.500000000, A.D. 2023-Jul-01 00:00:00.0000, 3.581479510176056E+09, 5.668069452939143E+09, -2.260709422405925E+08,
2460133.500000000, A.D. 2023-Jul-08 00:00:00.0000, 3.579251618367274E+09, 5.669451813492202E+09, -2.258448840389881E+08,
2460140.500000000, A.D. 2023-Jul-15 00:00:00.0000, 3.577023073051148E+09, 5.670833236387585E+09, -2.256187877918549E+08,
2460147.500000000, A.D. 2023-Jul-22 00:00:00.0000, 3.574793872663116E+09, 5.672213722057365E+09, -2.253926533159535E+08,
$$EOE